{
"type": "FeatureCollection",
"name": "ej_neighborhoods_voronoi",
"crs": { "type": "name", "properties": { "name": "urn:ogc:def:crs:OGC:1.3:CRS84" } },
"features": [
{ "type": "Feature", "properties": { "name_en": "Ramot Alon", "name_he": "רמות אלון", "pop_1997": 37167.0, "pop_2005": 40367.0, "pop_2016": 46150.0, "growth_1997_2016": 8983.0, "cagr_pct": 1.15 }, "geometry": { "type": "Polygon", "coordinates": [ [ [ 35.213173064006568, 31.838040698773607 ], [ 35.199798576566927, 31.78997613453738 ], [ 35.191329242166134, 31.776745433035643 ], [ 35.189580140167912, 31.775217051051484 ], [ 35.175989603021428, 31.776175045904104 ], [ 35.178939603021426, 31.818025045904104 ], [ 35.179120507082061, 31.819547187800822 ], [ 35.179446239904316, 31.821045033040292 ], [ 35.17991381181789, 31.822504833964576 ], [ 35.180518931312179, 31.823913192097482 ], [ 35.181256044424991, 31.825257181119689 ], [ 35.182118385718447, 31.826524465510229 ], [ 35.183098040374084, 31.827703413765487 ], [ 35.184186016837415, 31.828783205156519 ], [ 35.185372329344965, 31.82975392904482 ], [ 35.186646089576548, 31.830606675845068 ], [ 35.187995606591407, 31.831333618799853 ], [ 35.211095606591414, 31.842383618799854 ], [ 35.213173064006568, 31.838040698773607 ] ] ] } },
{ "type": "Feature", "properties": { "name_en": "Gilo", "name_he": "גילה", "pop_1997": 26604.0, "pop_2005": 27258.0, "pop_2016": 30900.0, "growth_1997_2016": 4296.0, "cagr_pct": 0.79 }, "geometry": { "type": "Polygon", "coordinates": [ [ [ 35.189580140167912, 31.775217051051484 ], [ 35.2032020062505, 31.7613011878592 ], [ 35.209867996463345, 31.742884253360891 ], [ 35.201007743033358, 31.712958295347356 ], [ 35.184457743033356, 31.717858295347355 ], [ 35.182998240162753, 31.718368315036518 ], [ 35.18159477564668, 31.719016817977725 ], [ 35.180260453615297, 31.719797749107347 ], [ 35.179007732616284, 31.72070381688145 ], [ 35.177848309289523, 31.721726561356864 ], [ 35.176793009155716, 31.722856433181555 ], [ 35.175851685538674, 31.724082882756807 ], [ 35.175033127564916, 31.725394458738684 ], [ 35.174344978099732, 31.726778914959084 ], [ 35.17379366238584, 31.728223324768056 ], [ 35.173384328050986, 31.72971420172976 ], [ 35.173120797044596, 31.731237625545152 ], [ 35.173005529952285, 31.732779372025629 ], [ 35.173039603021429, 31.734325045904104 ], [ 35.175989603021428, 31.776175045904104 ], [ 35.189580140167912, 31.775217051051484 ] ] ] } },
{ "type": "Feature", "properties": { "name_en": "Har Homa", "name_he": "הר חומה", "pop_1997": null, "pop_2005": 4234.0, "pop_2016": 20660.0, "growth_1997_2016": null, "cagr_pct": null }, "geometry": { "type": "Polygon", "coordinates": [ [ [ 35.209867996463345, 31.742884253360891 ], [ 35.241987745368448, 31.730238682925805 ], [ 35.236987745368445, 31.717538682925806 ], [ 35.236336215082012, 31.716097248454275 ], [ 35.235545535522171, 31.714727193388413 ], [ 35.234623435041257, 31.713441909080188 ], [ 35.233578926541327, 31.712253958305357 ], [ 35.232422219379139, 31.711174952470895 ], [ 35.231164619576717, 31.710215438121448 ], [ 35.229818419312679, 31.709384793854046 ], [ 35.228396776774623, 31.708691138648742 ], [ 35.226913587546804, 31.708141252511126 ], [ 35.225383348790317, 31.707740510202402 ], [ 35.223821017543244, 31.707492828704769 ], [ 35.222241864525827, 31.707400628935602 ], [ 35.220661324879615, 31.707464812084638 ], [ 35.219094847299523, 31.707684750805452 ], [ 35.217557743033353, 31.708058295347357 ], [ 35.201007743033358, 31.712958295347356 ], [ 35.209867996463345, 31.742884253360891 ] ] ] } },
{ "type": "Feature", "properties": { "name_en": "Ma'alot Dafna", "name_he": "מעלות דפנה", "pop_1997": 3666.0, "pop_2005": 3675.0, "pop_2016": 3240.0, "growth_1997_2016": -426.0, "cagr_pct": -0.65 }, "geometry": { "type": "Polygon", "coordinates": [ [ [ 35.201792621015294, 31.791198760330541 ], [ 35.231601291638341, 31.800903908905514 ], [ 35.23861623836644, 31.788189317960828 ], [ 35.191329242166134, 31.776745433035643 ], [ 35.199798576566927, 31.78997613453738 ], [ 35.201792621015294, 31.791198760330541 ] ] ] } },
{ "type": "Feature", "properties": { "name_en": "Ramat Shlomo", "name_he": "רמת שלמה", "pop_1997": 6098.0, "pop_2005": 14318.0, "pop_2016": 14770.0, "growth_1997_2016": 8672.0, "cagr_pct": 4.77 }, "geometry": { "type": "Polygon", "coordinates": [ [ [ 35.199798576566927, 31.78997613453738 ], [ 35.213173064006568, 31.838040698773607 ], [ 35.22668023064589, 31.827045391193522 ], [ 35.231432498299704, 31.816528077533437 ], [ 35.229799919649381, 31.812055259313368 ], [ 35.201792621015294, 31.791198760330541 ], [ 35.199798576566927, 31.78997613453738 ] ] ] } },
{ "type": "Feature", "properties": { "name_en": "Neve Ya'akov", "name_he": "נווה יעקב", "pop_1997": 19960.0, "pop_2005": 20156.0, "pop_2016": 22350.0, "growth_1997_2016": 2390.0, "cagr_pct": 0.6 }, "geometry": { "type": "Polygon", "coordinates": [ [ [ 35.22668023064589, 31.827045391193522 ], [ 35.213173064006568, 31.838040698773607 ], [ 35.211095606591414, 31.842383618799854 ], [ 35.234195606591413, 31.853433618799851 ], [ 35.235660974862405, 31.854047159384834 ], [ 35.237179962917523, 31.854512359887263 ], [ 35.23873759604907, 31.854824634200277 ], [ 35.240318518572856, 31.854980903816084 ], [ 35.241907145209858, 31.854979628174966 ], [ 35.243487814731239, 31.854820819852627 ], [ 35.245044944352138, 31.854506044436235 ], [ 35.246563183352166, 31.854038405090321 ], [ 35.248027564408062, 31.853422511964705 ], [ 35.249423651146749, 31.852664436746064 ], [ 35.250737680464056, 31.851771652801137 ], [ 35.251956698206143, 31.850752961501712 ], [ 35.253068686876034, 31.849618405457669 ], [ 35.254062684106231, 31.848379169513457 ], [ 35.254928890729488, 31.847047470484068 ], [ 35.255658767382421, 31.845636436717445 ], [ 35.256245118689463, 31.844159978670703 ], [ 35.256682164197372, 31.842632651776071 ], [ 35.258582164197371, 31.834482651776074 ], [ 35.22668023064589, 31.827045391193522 ] ] ] } },
{ "type": "Feature", "properties": { "name_en": "French Hill", "name_he": "הגבעה הצרפתית (גבעת שפירא)", "pop_1997": 8599.0, "pop_2005": 6589.0, "pop_2016": 8620.0, "growth_1997_2016": 21.0, "cagr_pct": 0.01 }, "geometry": { "type": "Polygon", "coordinates": [ [ [ 35.23861623836644, 31.788189317960828 ], [ 35.231601291638341, 31.800903908905514 ], [ 35.229799919649381, 31.812055259313368 ], [ 35.231432498299704, 31.816528077533437 ], [ 35.258392897788369, 31.806849985409304 ], [ 35.254546492849016, 31.784643006892267 ], [ 35.23861623836644, 31.788189317960828 ] ] ] } },
{ "type": "Feature", "properties": { "name_en": "Ramat Eshkol", "name_he": "רמת אשכול", "pop_1997": 6341.0, "pop_2005": 6164.0, "pop_2016": 3180.0, "growth_1997_2016": -3161.0, "cagr_pct": -3.57 }, "geometry": { "type": "Polygon", "coordinates": [ [ [ 35.229799919649381, 31.812055259313368 ], [ 35.231601291638341, 31.800903908905514 ], [ 35.201792621015294, 31.791198760330541 ], [ 35.229799919649381, 31.812055259313368 ] ] ] } },
{ "type": "Feature", "properties": { "name_en": "Jewish Quarter", "name_he": "הרובע היהודי", "pop_1997": 2282.0, "pop_2005": 2476.0, "pop_2016": 3020.0, "growth_1997_2016": 738.0, "cagr_pct": 1.49 }, "geometry": { "type": "Polygon", "coordinates": [ [ [ 35.191329242166134, 31.776745433035643 ], [ 35.23861623836644, 31.788189317960828 ], [ 35.254546492849016, 31.784643006892267 ], [ 35.250661001253484, 31.762210364008688 ], [ 35.2032020062505, 31.7613011878592 ], [ 35.189580140167912, 31.775217051051484 ], [ 35.191329242166134, 31.776745433035643 ] ] ] } },
{ "type": "Feature", "properties": { "name_en": "Talpiot East", "name_he": "תלפיות מזרח", "pop_1997": 13348.0, "pop_2005": 12158.0, "pop_2016": 14450.0, "growth_1997_2016": 1102.0, "cagr_pct": 0.42 }, "geometry": { "type": "Polygon", "coordinates": [ [ [ 35.209867996463345, 31.742884253360891 ], [ 35.2032020062505, 31.7613011878592 ], [ 35.250661001253484, 31.762210364008688 ], [ 35.247865263265652, 31.746069345469547 ], [ 35.247506232393789, 31.744481666591291 ], [ 35.24698774536845, 31.742938682925804 ], [ 35.241987745368448, 31.730238682925805 ], [ 35.209867996463345, 31.742884253360891 ] ] ] } },
{ "type": "Feature", "properties": { "name_en": "Pisgat Ze'ev", "name_he": "פסגת זאב", "pop_1997": 31150.0, "pop_2005": 41208.0, "pop_2016": 41930.0, "growth_1997_2016": 10780.0, "cagr_pct": 1.58 }, "geometry": { "type": "Polygon", "coordinates": [ [ [ 35.231432498299704, 31.816528077533437 ], [ 35.22668023064589, 31.827045391193522 ], [ 35.258582164197371, 31.834482651776074 ], [ 35.26048216419737, 31.826332651776074 ], [ 35.260767257890734, 31.824756727261672 ], [ 35.260893380472091, 31.823160196778542 ], [ 35.260859268342699, 31.821559055669294 ], [ 35.260665263265651, 31.819969345469548 ], [ 35.258392897788369, 31.806849985409304 ], [ 35.231432498299704, 31.816528077533437 ] ] ] } }
]
}
