{"type": "FeatureCollection", "features": [{"type": "Feature", "geometry": {"type": "Point", "coordinates": [35.507222, 31.821111]}, "properties": {"name_he": "בית חגלה", "region_en": "Jericho", "decision_date": "2023-02-12", "decision_type": "outpost_legalization", "coord_source": "wikidata:Q117534568", "coord_confidence": "exact"}}, {"type": "Feature", "geometry": {"type": "Point", "coordinates": [35.273236, 32.058864]}, "properties": {"name_he": "גבעות הרואה", "region_en": "Nablus", "decision_date": "2023-02-12", "decision_type": "outpost_legalization", "coord_source": "wikidata:Q126723280", "coord_confidence": "exact"}}, {"type": "Feature", "geometry": {"type": "Point", "coordinates": [35.3675, 32.1536]}, "properties": {"name_he": "גבעת ארנון", "region_en": "Nablus", "decision_date": "2023-02-12", "decision_type": "outpost_legalization", "coord_source": "wikidata:Q18206439", "coord_confidence": "exact"}}, {"type": "Feature", "geometry": {"type": "Point", "coordinates": [35.319586, 31.7352]}, "properties": {"name_he": "מצפה יהודה", "region_en": "Jerusalem", "decision_date": "2023-02-12", "decision_type": "outpost_legalization", "coord_source": "wikidata:Q120970112", "coord_confidence": "exact"}}, {"type": "Feature", "geometry": {"type": "Point", "coordinates": [35.076389, 32.082778]}, "properties": {"name_he": "שחרית", "region_en": "Qalqilya", "decision_date": "2023-02-12", "decision_type": "outpost_legalization", "coord_source": "wikidata:Q120967340", "coord_confidence": "exact"}}, {"type": "Feature", "geometry": {"type": "Point", "coordinates": [35.164778, 31.712]}, "properties": {"name_he": "נחל חלץ", "region_en": "Bethlehem", "decision_date": "2024-06-27", "decision_type": "outpost_legalization", "coord_source": "wikidata:Q126942301", "coord_confidence": "exact"}}, {"type": "Feature", "geometry": {"type": "Point", "coordinates": [35.092088, 31.939813]}, "properties": {"name_he": "שדה אפרים", "region_en": "Ramallah", "decision_date": "2024-06-27", "decision_type": "outpost_legalization", "coord_source": "wikidata:Q126924004", "coord_confidence": "exact"}}, {"type": "Feature", "geometry": {"type": "Point", "coordinates": [34.878456, 31.998031]}, "properties": {"name_he": "ברוש", "region_en": "Jordan Valley", "decision_date": "2025-03-22", "decision_type": "neighborhood_to_settlement", "coord_source": "osm:w30676786", "coord_confidence": "approximate"}}, {"type": "Feature", "geometry": {"type": "Point", "coordinates": [35.236031, 32.098262]}, "properties": {"name_he": "נופי נחמיה", "region_en": "Nablus", "decision_date": "2025-03-22", "decision_type": "neighborhood_to_settlement", "coord_source": "osm:w538978400", "coord_confidence": "approximate"}}, {"type": "Feature", "geometry": {"type": "Point", "coordinates": [35.046894, 32.067374]}, "properties": {"name_he": "לשם", "region_en": "Qalqilya", "decision_date": "2025-03-22", "decision_type": "neighborhood_to_settlement", "coord_source": "wikidata:Q16129342", "coord_confidence": "exact"}}, {"type": "Feature", "geometry": {"type": "Point", "coordinates": [35.149319, 31.944497]}, "properties": {"name_he": "חרשה", "region_en": "Ramallah", "decision_date": "2025-03-22", "decision_type": "neighborhood_to_settlement", "coord_source": "wikidata:Q5654268", "coord_confidence": "exact"}}, {"type": "Feature", "geometry": {"type": "Point", "coordinates": [35.137961, 31.958039]}, "properties": {"name_he": "כרם רעים", "region_en": "Ramallah", "decision_date": "2025-03-22", "decision_type": "neighborhood_to_settlement", "coord_source": "wikidata:Q20502294", "coord_confidence": "exact"}}, {"type": "Feature", "geometry": {"type": "Point", "coordinates": [35.271389, 31.889722]}, "properties": {"name_he": "מגרון", "region_en": "Ramallah", "decision_date": "2025-03-22", "decision_type": "neighborhood_to_settlement", "coord_source": "wikidata:Q1932530", "coord_confidence": "exact"}}, {"type": "Feature", "geometry": {"type": "Point", "coordinates": [35.22, 31.6053]}, "properties": {"name_he": "איבי הנחל", "region_en": "Bethlehem", "decision_date": "2025-03-22", "decision_type": "neighborhood_to_settlement", "coord_source": "wikidata:Q3488388", "coord_confidence": "exact"}}, {"type": "Feature", "geometry": {"type": "Point", "coordinates": [34.871141, 32.031457]}, "properties": {"name_he": "ענבר", "region_en": "Ramallah", "decision_date": "2025-05-18", "decision_type": "outpost_legalization", "coord_source": "osm:w42283669", "coord_confidence": "approximate"}}, {"type": "Feature", "geometry": {"type": "Point", "coordinates": [34.882112, 32.267779]}, "properties": {"name_he": "גבעונית", "region_en": "Jordan Valley", "decision_date": "2025-05-18", "decision_type": "outpost_legalization", "coord_source": "osm:w37047284", "coord_confidence": "approximate"}}, {"type": "Feature", "geometry": {"type": "Point", "coordinates": [35.482854, 32.33298]}, "properties": {"name_he": "תבץ (גודר", "region_en": "Jordan Valley", "decision_date": "2025-05-18", "decision_type": "outpost_legalization", "coord_source": "osm:w339396208", "coord_confidence": "approximate"}}, {"type": "Feature", "geometry": {"type": "Point", "coordinates": [35.119972, 31.590111]}, "properties": {"name_he": "מעלות חלחול", "region_en": "Hebron", "decision_date": "2025-05-18", "decision_type": "new_settlement", "coord_source": "wikidata:Q135477862", "coord_confidence": "exact"}}, {"type": "Feature", "geometry": {"type": "Point", "coordinates": [35.037319, 31.46865]}, "properties": {"name_he": "אפקה", "region_en": "Hebron", "decision_date": "2025-05-18", "decision_type": "outpost_legalization", "coord_source": "wikidata:Q135479406", "coord_confidence": "exact"}}, {"type": "Feature", "geometry": {"type": "Point", "coordinates": [35.00375, 31.385528]}, "properties": {"name_he": "יונדב", "region_en": "Hebron", "decision_date": "2025-05-18", "decision_type": "outpost_legalization", "coord_source": "wikidata:Q135484301", "coord_confidence": "exact"}}, {"type": "Feature", "geometry": {"type": "Point", "coordinates": [35.15211, 31.497596]}, "properties": {"name_he": "מצפה זיו", "region_en": "Hebron", "decision_date": "2025-05-18", "decision_type": "new_settlement", "coord_source": "osm:n8718028217", "coord_confidence": "approximate"}}, {"type": "Feature", "geometry": {"type": "Point", "coordinates": [35.329092, 32.11686]}, "properties": {"name_he": "רחבעם", "region_en": "Nablus", "decision_date": "2025-05-18", "decision_type": "new_settlement", "coord_source": "osm:n13481918838", "coord_confidence": "approximate"}}, {"type": "Feature", "geometry": {"type": "Point", "coordinates": [35.201939, 32.336888]}, "properties": {"name_he": "שא־נור", "region_en": "Nablus", "decision_date": "2025-05-18", "decision_type": "new_settlement", "coord_source": "osm:n13720177736", "coord_confidence": "approximate"}}, {"type": "Feature", "geometry": {"type": "Point", "coordinates": [35.2733, 32.234]}, "properties": {"name_he": "הר עיבל", "region_en": "Nablus", "decision_date": "2025-05-18", "decision_type": "new_settlement", "coord_source": "wikidata:Q1975866", "coord_confidence": "exact"}}, {"type": "Feature", "geometry": {"type": "Point", "coordinates": [35.16523, 32.42508]}, "properties": {"name_he": "מעוז צבי", "region_en": "Jenin", "decision_date": "2025-05-18", "decision_type": "outpost_legalization", "coord_source": "wikidata:Q111205751", "coord_confidence": "exact"}}, {"type": "Feature", "geometry": {"type": "Point", "coordinates": [35.113083, 32.437817]}, "properties": {"name_he": "אל נווה", "region_en": "Jenin", "decision_date": "2025-05-18", "decision_type": "outpost_legalization", "coord_source": "osm:n12870825059", "coord_confidence": "approximate"}}, {"type": "Feature", "geometry": {"type": "Point", "coordinates": [35.540729, 31.87447]}, "properties": {"name_he": "אלנבי", "region_en": "Jericho", "decision_date": "2025-12-11", "decision_type": "new_settlement", "coord_source": "osm:w1328060632", "coord_confidence": "approximate"}}, {"type": "Feature", "geometry": {"type": "Point", "coordinates": [34.904867, 32.443585]}, "properties": {"name_he": "בזק", "region_en": "Tubas", "decision_date": "2025-12-11", "decision_type": "outpost_legalization", "coord_source": "osm:w1393360012", "coord_confidence": "approximate"}}, {"type": "Feature", "geometry": {"type": "Point", "coordinates": [35.337847, 32.450083]}, "properties": {"name_he": "גנים", "region_en": "Jenin", "decision_date": "2025-12-11", "decision_type": "new_settlement", "coord_source": "wikidata:Q2909325", "coord_confidence": "exact"}}, {"type": "Feature", "geometry": {"type": "Point", "coordinates": [34.997293, 31.519998]}, "properties": {"name_he": "דורן", "region_en": "Hebron", "decision_date": "2025-12-11", "decision_type": "new_settlement", "coord_source": "wikidata:Q137443602", "coord_confidence": "exact"}}, {"type": "Feature", "geometry": {"type": "Point", "coordinates": [35.3858, 32.2842]}, "properties": {"name_he": "טמון", "region_en": "Tubas", "decision_date": "2025-12-11", "decision_type": "new_settlement", "coord_source": "wikidata:Q275722", "coord_confidence": "exact"}}, {"type": "Feature", "geometry": {"type": "Point", "coordinates": [35.125808, 31.619423]}, "properties": {"name_he": "יער אל קרן", "region_en": "Hebron", "decision_date": "2025-12-11", "decision_type": "new_settlement", "coord_source": "osm:w555428235", "coord_confidence": "approximate"}}, {"type": "Feature", "geometry": {"type": "Point", "coordinates": [35.240278, 31.697222]}, "properties": {"name_he": "יציב (שדמה", "region_en": "Bethlehem", "decision_date": "2025-12-11", "decision_type": "outpost_legalization", "coord_source": "wikidata:Q137381574", "coord_confidence": "exact"}}, {"type": "Feature", "geometry": {"type": "Point", "coordinates": [35.319986, 32.449169]}, "properties": {"name_he": "כדים", "region_en": "Jenin", "decision_date": "2025-12-11", "decision_type": "new_settlement", "coord_source": "wikidata:Q2891037", "coord_confidence": "exact"}}, {"type": "Feature", "geometry": {"type": "Point", "coordinates": [35.172626, 32.104436]}, "properties": {"name_he": "משעול", "region_en": "Ramallah", "decision_date": "2025-12-11", "decision_type": "outpost_legalization", "coord_source": "osm:w84901725", "coord_confidence": "approximate"}}, {"type": "Feature", "geometry": {"type": "Point", "coordinates": [35.519132, 32.28945]}, "properties": {"name_he": "נוף גלעד", "region_en": "Ramallah", "decision_date": "2025-12-11", "decision_type": "outpost_legalization", "coord_source": "osm:w1473818550", "coord_confidence": "approximate"}}, {"type": "Feature", "geometry": {"type": "Point", "coordinates": [35.195833, 31.588333]}, "properties": {"name_he": "פני קדם", "region_en": "Hebron", "decision_date": "2025-12-11", "decision_type": "neighborhood_to_settlement", "coord_source": "wikidata:Q3488377", "coord_confidence": "exact"}}, {"type": "Feature", "geometry": {"type": "Point", "coordinates": [34.920583, 32.101399]}, "properties": {"name_he": "ראש העין מזרח", "region_en": "Salfit", "decision_date": "2025-12-11", "decision_type": "outpost_legalization", "coord_source": "osm:n1803003424", "coord_confidence": "approximate"}}, {"type": "Feature", "geometry": {"type": "Point", "coordinates": [35.346111, 32.201111]}, "properties": {"name_he": "שלם", "region_en": "Nablus", "decision_date": "2025-12-11", "decision_type": "outpost_legalization", "coord_source": "wikidata:Q137381508", "coord_confidence": "exact"}}, {"type": "Feature", "geometry": {"type": "Point", "coordinates": [35.120138, 32.162956]}, "properties": {"name_he": "אלוני שומרון", "region_en": "Jenin", "decision_date": "2026-03-25", "decision_type": "new_settlement", "coord_source": "osm:w661740246", "coord_confidence": "approximate"}}, {"type": "Feature", "geometry": {"type": "Point", "coordinates": [35.225848, 31.780934]}, "properties": {"name_he": "אלישע", "region_en": "Jericho", "decision_date": "2026-03-25", "decision_type": "new_settlement", "coord_source": "osm:w44051441", "coord_confidence": "approximate"}}, {"type": "Feature", "geometry": {"type": "Point", "coordinates": [35.140168, 31.660306]}, "properties": {"name_he": "בית צוער", "region_en": "Jericho", "decision_date": "2026-03-25", "decision_type": "new_settlement", "coord_source": "osm:w63345578", "coord_confidence": "approximate"}}, {"type": "Feature", "geometry": {"type": "Point", "coordinates": [35.00409, 31.655019]}, "properties": {"name_he": "גבעות עדולם", "region_en": "Bethlehem", "decision_date": "2026-03-25", "decision_type": "outpost_legalization", "coord_source": "osm:n2364915306", "coord_confidence": "approximate"}}, {"type": "Feature", "geometry": {"type": "Point", "coordinates": [35.377247, 32.065714]}, "properties": {"name_he": "גיבורי דוד", "region_en": "Jordan Valley", "decision_date": "2026-03-25", "decision_type": "outpost_legalization", "coord_source": "osm:n13426154483", "coord_confidence": "approximate"}}, {"type": "Feature", "geometry": {"type": "Point", "coordinates": [34.901524, 31.988075]}, "properties": {"name_he": "דיה", "region_en": "Jericho", "decision_date": "2026-03-25", "decision_type": "outpost_legalization", "coord_source": "osm:w83891799", "coord_confidence": "approximate"}}, {"type": "Feature", "geometry": {"type": "Point", "coordinates": [35.130676, 32.450215]}, "properties": {"name_he": "זיבדה", "region_en": "Ramallah", "decision_date": "2026-03-25", "decision_type": "new_settlement", "coord_source": "osm:n332786533", "coord_confidence": "approximate"}}, {"type": "Feature", "geometry": {"type": "Point", "coordinates": [35.100877, 31.609224]}, "properties": {"name_he": "כרמי יהודה", "region_en": "Hebron", "decision_date": "2026-03-25", "decision_type": "new_settlement", "coord_source": "osm:w462664109", "coord_confidence": "approximate"}}, {"type": "Feature", "geometry": {"type": "Point", "coordinates": [34.986329, 31.703512]}, "properties": {"name_he": "מבוא השמש", "region_en": "Jordan Valley", "decision_date": "2026-03-25", "decision_type": "new_settlement", "coord_source": "osm:n10916444204", "coord_confidence": "approximate"}}, {"type": "Feature", "geometry": {"type": "Point", "coordinates": [35.163259, 32.227126]}, "properties": {"name_he": "מבוא תרצה", "region_en": "Jordan Valley", "decision_date": "2026-03-25", "decision_type": "new_settlement", "coord_source": "osm:n5210697946", "coord_confidence": "approximate"}}, {"type": "Feature", "geometry": {"type": "Point", "coordinates": [34.97087, 32.463251]}, "properties": {"name_he": "מגד", "region_en": "Hebron", "decision_date": "2026-03-25", "decision_type": "new_settlement", "coord_source": "osm:w144979309", "coord_confidence": "approximate"}}, {"type": "Feature", "geometry": {"type": "Point", "coordinates": [35.225017, 31.653919]}, "properties": {"name_he": "מעיינות", "region_en": "Jenin", "decision_date": "2026-03-25", "decision_type": "new_settlement", "coord_source": "osm:w93195773", "coord_confidence": "approximate"}}, {"type": "Feature", "geometry": {"type": "Point", "coordinates": [35.359222, 31.464744]}, "properties": {"name_he": "מעלה ערוגות", "region_en": "Bethlehem", "decision_date": "2026-03-25", "decision_type": "new_settlement", "coord_source": "osm:n8224732937", "coord_confidence": "approximate"}}, {"type": "Feature", "geometry": {"type": "Point", "coordinates": [35.091944, 31.661667]}, "properties": {"name_he": "משואות הר", "region_en": "Bethlehem", "decision_date": "2026-03-25", "decision_type": "new_settlement", "coord_source": "wikidata:Q139099002", "coord_confidence": "exact"}}, {"type": "Feature", "geometry": {"type": "Point", "coordinates": [34.887972, 32.091445]}, "properties": {"name_he": "נועה", "region_en": "Jenin", "decision_date": "2026-03-25", "decision_type": "new_settlement", "coord_source": "osm:n4359021490", "coord_confidence": "approximate"}}, {"type": "Feature", "geometry": {"type": "Point", "coordinates": [35.071381, 31.953513]}, "properties": {"name_he": "נטוף", "region_en": "Ramallah", "decision_date": "2026-03-25", "decision_type": "new_settlement", "coord_source": "osm:w1190888053", "coord_confidence": "approximate"}}, {"type": "Feature", "geometry": {"type": "Point", "coordinates": [35.22, 32.43]}, "properties": {"name_he": "עמק דותן", "region_en": "Jenin", "decision_date": "2026-03-25", "decision_type": "new_settlement", "coord_source": "wikidata:Q7399669", "coord_confidence": "exact"}}, {"type": "Feature", "geometry": {"type": "Point", "coordinates": [34.864026, 31.95629]}, "properties": {"name_he": "צאלון", "region_en": "Salfit", "decision_date": "2026-03-25", "decision_type": "outpost_legalization", "coord_source": "osm:w1177178178", "coord_confidence": "approximate"}}, {"type": "Feature", "geometry": {"type": "Point", "coordinates": [35.232774, 31.745258]}, "properties": {"name_he": "צורי", "region_en": "Jericho", "decision_date": "2026-03-25", "decision_type": "new_settlement", "coord_source": "osm:w138498878", "coord_confidence": "approximate"}}, {"type": "Feature", "geometry": {"type": "Point", "coordinates": [35.265208, 32.19605]}, "properties": {"name_he": "צפנת", "region_en": "Nablus", "decision_date": "2026-03-25", "decision_type": "outpost_legalization", "coord_source": "osm:w659908206", "coord_confidence": "approximate"}}, {"type": "Feature", "geometry": {"type": "Point", "coordinates": [35.231667, 31.85]}, "properties": {"name_he": "רמתיים צופים", "region_en": "Ramallah", "decision_date": "2026-03-25", "decision_type": "outpost_legalization", "coord_source": "wikidata:Q1019146", "coord_confidence": "exact"}}, {"type": "Feature", "geometry": {"type": "Point", "coordinates": [35.382319, 32.044402]}, "properties": {"name_he": "רשאש", "region_en": "Jordan Valley", "decision_date": "2026-03-25", "decision_type": "outpost_legalization", "coord_source": "osm:w485301859", "coord_confidence": "approximate"}}, {"type": "Feature", "geometry": {"type": "Point", "coordinates": [34.856865, 32.033191]}, "properties": {"name_he": "שיזף", "region_en": "Bethlehem", "decision_date": "2026-03-25", "decision_type": "new_settlement", "coord_source": "osm:w28527796", "coord_confidence": "approximate"}}, {"type": "Feature", "geometry": {"type": "Point", "coordinates": [35.221111, 32.519722]}, "properties": {"name_he": "תענך", "region_en": "Jenin", "decision_date": "2026-04-01", "decision_type": "new_settlement", "coord_source": "wikidata:Q4449159", "coord_confidence": "exact"}}]}